TRANSPORTER-11 OBJECT A 
1 60468U 24149A   26068.74646182  .00010774  00000+0  36054-3 0  9993
2 60468  97.3780 149.0949 0003110 191.0010 169.1164 15.31141332 86830
STARLINK-36183          
1 67173U 25303L   26068.04139274  .00045748  00000+0  16613-2 0  9995
2 67173  43.0008 314.5763 0001771 267.5782  92.4867 15.27587617 12630
